{
 "type": "FeatureCollection",
 "name": "mock_drive_route",
 "properties": {
  "description": "เส้นทางจำลอง ถนนแยกสาครเกษม-คลองมะเดื่อ (สมุทรสาคร) ทิศทางเดียวไม่สวนเลน ผ่านครบทั้งสามระดับ ต่ำ ปานกลาง สูง เริ่มก่อนจุดเสี่ยงแรก ~1.3 กม.",
  "road": "แยกสาครเกษม - คลองมะเดื่อ",
  "length_km": 6.19,
  "start_offset_m": 1300,
  "calibration": "v2569-r1-3y",
  "targets": [
   {
    "id": "zone_432",
    "level": "low"
   },
   {
    "id": "zone_431",
    "level": "low"
   },
   {
    "id": "zone_440",
    "level": "medium"
   },
   {
    "id": "zone_439",
    "level": "low"
   },
   {
    "id": "zone_441",
    "level": "medium"
   },
   {
    "id": "zone_455",
    "level": "high"
   },
   {
    "id": "zone_453",
    "level": "medium"
   }
  ]
 },
 "features": [
  {
   "type": "Feature",
   "properties": {
    "kind": "route"
   },
   "geometry": {
    "type": "LineString",
    "coordinates": [
     [
      100.332977,
      13.703165
     ],
     [
      100.333001,
      13.70331
     ],
     [
      100.333189,
      13.704376
     ],
     [
      100.333205,
      13.704475
     ],
     [
      100.333201,
      13.704598
     ],
     [
      100.332593,
      13.704545
     ],
     [
      100.332444,
      13.704533
     ],
     [
      100.33225,
      13.704515
     ],
     [
      100.331987,
      13.704487
     ],
     [
      100.331636,
      13.704456
     ],
     [
      100.331164,
      13.704425
     ],
     [
      100.33106,
      13.704349
     ],
     [
      100.331003,
      13.704291
     ],
     [
      100.33096,
      13.704235
     ],
     [
      100.330924,
      13.704176
     ],
     [
      100.330909,
      13.704115
     ],
     [
      100.330916,
      13.703591
     ],
     [
      100.330928,
      13.702614
     ],
     [
      100.33092,
      13.702303
     ],
     [
      100.330894,
      13.70163
     ],
     [
      100.330854,
      13.701097
     ],
     [
      100.330775,
      13.70046
     ],
     [
      100.330693,
      13.700054
     ],
     [
      100.330598,
      13.699663
     ],
     [
      100.33056,
      13.699538
     ],
     [
      100.330511,
      13.699411
     ],
     [
      100.330447,
      13.69927
     ],
     [
      100.330417,
      13.699149
     ],
     [
      100.330307,
      13.69871
     ],
     [
      100.330135,
      13.698112
     ],
     [
      100.330003,
      13.697683
     ],
     [
      100.329868,
      13.697283
     ],
     [
      100.329775,
      13.697017
     ],
     [
      100.329619,
      13.696565
     ],
     [
      100.329317,
      13.695927
     ],
     [
      100.329099,
      13.695468
     ],
     [
      100.328729,
      13.694829
     ],
     [
      100.327431,
      13.692385
     ],
     [
      100.327203,
      13.691948
     ],
     [
      100.327118,
      13.69179
     ],
     [
      100.327003,
      13.691575
     ],
     [
      100.326861,
      13.691302
     ],
     [
      100.326371,
      13.690378
     ],
     [
      100.325526,
      13.688806
     ],
     [
      100.324589,
      13.687042
     ],
     [
      100.324089,
      13.6861
     ],
     [
      100.323955,
      13.685852
     ],
     [
      100.323889,
      13.685731
     ],
     [
      100.323253,
      13.684526
     ],
     [
      100.322929,
      13.68391
     ],
     [
      100.322576,
      13.683242
     ],
     [
      100.322259,
      13.682656
     ],
     [
      100.321916,
      13.682021
     ],
     [
      100.321678,
      13.681582
     ],
     [
      100.321386,
      13.681025
     ],
     [
      100.321346,
      13.680944
     ],
     [
      100.321093,
      13.680415
     ],
     [
      100.320915,
      13.680023
     ],
     [
      100.320701,
      13.679513
     ],
     [
      100.32048,
      13.678899
     ],
     [
      100.320468,
      13.678867
     ],
     [
      100.320228,
      13.678245
     ],
     [
      100.32007,
      13.677836
     ],
     [
      100.319822,
      13.677095
     ],
     [
      100.319743,
      13.676834
     ],
     [
      100.319419,
      13.6759
     ],
     [
      100.319321,
      13.675575
     ],
     [
      100.319307,
      13.675525
     ],
     [
      100.319155,
      13.675027
     ],
     [
      100.318939,
      13.674318
     ],
     [
      100.318781,
      13.67381
     ],
     [
      100.318502,
      13.672873
     ],
     [
      100.318307,
      13.672222
     ],
     [
      100.318128,
      13.67165
     ],
     [
      100.317941,
      13.671071
     ],
     [
      100.317722,
      13.670471
     ],
     [
      100.317566,
      13.67005
     ],
     [
      100.317373,
      13.669565
     ],
     [
      100.317289,
      13.669379
     ],
     [
      100.316802,
      13.668372
     ],
     [
      100.316584,
      13.66799
     ],
     [
      100.31617,
      13.667281
     ],
     [
      100.316133,
      13.667217
     ],
     [
      100.3161,
      13.667154
     ],
     [
      100.315965,
      13.666925
     ],
     [
      100.315901,
      13.666811
     ],
     [
      100.31566,
      13.666384
     ],
     [
      100.315503,
      13.666099
     ],
     [
      100.315334,
      13.665803
     ],
     [
      100.315175,
      13.665512
     ],
     [
      100.314699,
      13.66469
     ],
     [
      100.314425,
      13.664203
     ],
     [
      100.314329,
      13.664029
     ],
     [
      100.314039,
      13.663507
     ],
     [
      100.313712,
      13.662918
     ],
     [
      100.31364,
      13.66279
     ],
     [
      100.313365,
      13.662267
     ],
     [
      100.31301,
      13.66168
     ],
     [
      100.312742,
      13.661208
     ],
     [
      100.31261,
      13.660976
     ],
     [
      100.31194,
      13.659934
     ],
     [
      100.311688,
      13.659594
     ],
     [
      100.311522,
      13.659385
     ],
     [
      100.311117,
      13.6589
     ],
     [
      100.310889,
      13.658631
     ],
     [
      100.310656,
      13.658382
     ],
     [
      100.310037,
      13.657756
     ],
     [
      100.309571,
      13.657263
     ]
    ]
   }
  }
 ]
}