{"type": "FeatureCollection", "features": [{"type": "Feature", "properties": {"kind": "route", "name": "วนจุดเสี่ยงรังสิต", "length_km": 23.02, "note": "หาเส้นทางด้วย Dijkstra บนกราฟถนนจริงจาก OpenStreetMap เคารพทิศทางเดินรถ"}, "geometry": {"type": "LineString", "coordinates": [[100.601986, 14.079194], [100.602455, 14.079173], [100.602743, 14.079161], [100.603242, 14.079141], [100.603302, 14.079138], [100.603451, 14.079132], [100.603527, 14.079131], [100.603567, 14.078936], [100.603603, 14.078712], [100.603603, 14.078141], [100.603606, 14.077834], [100.603609, 14.077745], [100.603569, 14.076446], [100.603598, 14.076412], [100.603601, 14.076375], [100.6036, 14.076334], [100.603586, 14.076303], [100.603559, 14.076279], [100.603538, 14.076076], [100.603542, 14.075707], [100.605351, 14.075722], [100.607201, 14.075728], [100.609303, 14.075753], [100.610203, 14.07576], [100.614042, 14.07579], [100.614128, 14.0758], [100.614265, 14.075825], [100.614466, 14.07587], [100.614699, 14.075919], [100.614931, 14.075925], [100.616307, 14.075936], [100.61709, 14.075943], [100.617307, 14.075947], [100.617398, 14.075955], [100.617447, 14.075971], [100.617486, 14.076], [100.61758, 14.076101], [100.617617, 14.077103], [100.617626, 14.077517], [100.61768, 14.078693], [100.617717, 14.079672], [100.617723, 14.080092], [100.617826, 14.082855], [100.617911, 14.085259], [100.617914, 14.085341], [100.617923, 14.085545], [100.617929, 14.08569], [100.617942, 14.085995], [100.617951, 14.086203], [100.617976, 14.086875], [100.617983, 14.087073], [100.618014, 14.087597], [100.618034, 14.088234], [100.618044, 14.088553], [100.618056, 14.088934], [100.618127, 14.090456], [100.618196, 14.092462], [100.618206, 14.092754], [100.618228, 14.093489], [100.618273, 14.093722], [100.61833, 14.095204], [100.618379, 14.096452], [100.61838, 14.096935], [100.618403, 14.097031], [100.618434, 14.097074], [100.61847, 14.097098], [100.618538, 14.097126], [100.618605, 14.097128], [100.61865, 14.097121], [100.618696, 14.097097], [100.618726, 14.097069], [100.618753, 14.097043], [100.618773, 14.097005], [100.618781, 14.096955], [100.618779, 14.096866], [100.618726, 14.095542], [100.618672, 14.094072], [100.618687, 14.093763], [100.618679, 14.093545], [100.618673, 14.093438], [100.618661, 14.093194], [100.618626, 14.092497], [100.618609, 14.092155], [100.618589, 14.091617], [100.618578, 14.091401], [100.618567, 14.091099], [100.618549, 14.090655], [100.618521, 14.089946], [100.618485, 14.08909], [100.618475, 14.088861], [100.618459, 14.088398], [100.618455, 14.088197], [100.618428, 14.087218], [100.618418, 14.086779], [100.618409, 14.086537], [100.618404, 14.086348], [100.618387, 14.085821], [100.618369, 14.085288], [100.618355, 14.084935], [100.618314, 14.083843], [100.618306, 14.083535], [100.618277, 14.0826], [100.618253, 14.081963], [100.618244, 14.081767], [100.618213, 14.080832], [100.618154, 14.079321], [100.618132, 14.078756], [100.618066, 14.077258], [100.618042, 14.076732], [100.618015, 14.075888], [100.618003, 14.075612], [100.617975, 14.07486], [100.617974, 14.074752], [100.617962, 14.074421], [100.617935, 14.073812], [100.617925, 14.073583], [100.617912, 14.073265], [100.617901, 14.073012], [100.617892, 14.072801], [100.61787, 14.07235], [100.617866, 14.072243], [100.617836, 14.071587], [100.617822, 14.071354], [100.617809, 14.071041], [100.617789, 14.070596], [100.617781, 14.070361], [100.617766, 14.070051], [100.617762, 14.06996], [100.617739, 14.069536], [100.617724, 14.069135], [100.617683, 14.068139], [100.617658, 14.067076], [100.617631, 14.066259], [100.617629, 14.06614], [100.617613, 14.06518], [100.617682, 14.065101], [100.61779, 14.065065], [100.617901, 14.065065], [100.618039, 14.065064], [100.618116, 14.065062], [100.618506, 14.065061], [100.618638, 14.06506], [100.618754, 14.065079], [100.618828, 14.065091], [100.619039, 14.065108], [100.619072, 14.065107], [100.62047, 14.065145], [100.621814, 14.065194], [100.62218, 14.065202], [100.622521, 14.065222], [100.622879, 14.065216], [100.623807, 14.065243], [100.623974, 14.065247], [100.624268, 14.065254], [100.624463, 14.065254], [100.625145, 14.065256], [100.625393, 14.065256], [100.626488, 14.065262], [100.627972, 14.065272], [100.628088, 14.065275], [100.628454, 14.065284], [100.628761, 14.065292], [100.629814, 14.065311], [100.63012, 14.065318], [100.630279, 14.065319], [100.630604, 14.065357], [100.631553, 14.065365], [100.631803, 14.065368], [100.632611, 14.06537], [100.632724, 14.065369], [100.633608, 14.065384], [100.633966, 14.065387], [100.634087, 14.065382], [100.634447, 14.065396], [100.635482, 14.065414], [100.635687, 14.065417], [100.635906, 14.065422], [100.636399, 14.065435], [100.636439, 14.065435], [100.637631, 14.065443], [100.637774, 14.065433], [100.639211, 14.065476], [100.640795, 14.065519], [100.641733, 14.065546], [100.642112, 14.065542], [100.64216, 14.065542], [100.643612, 14.065556], [100.643885, 14.065556], [100.644025, 14.06557], [100.644197, 14.065579], [100.644495, 14.065581], [100.644805, 14.065584], [100.644921, 14.065585], [100.645532, 14.065599], [100.64603, 14.065608], [100.646355, 14.065617], [100.646642, 14.065621], [100.647082, 14.065627], [100.647395, 14.065631], [100.647531, 14.065633], [100.64787, 14.065638], [100.647911, 14.065639], [100.648044, 14.065641], [100.648259, 14.065644], [100.648478, 14.065648], [100.648649, 14.065653], [100.648998, 14.065663], [100.649648, 14.065675], [100.649775, 14.065677], [100.65019, 14.065683], [100.650569, 14.065688], [100.650974, 14.065696], [100.651244, 14.065698], [100.651326, 14.065684], [100.65158, 14.065683], [100.652021, 14.065697], [100.652103, 14.065699], [100.65258, 14.065702], [100.652844, 14.065703], [100.652872, 14.065703], [100.653053, 14.065698], [100.653125, 14.065697], [100.654752, 14.065743], [100.656497, 14.065805], [100.656817, 14.065817], [100.657308, 14.065843], [100.657746, 14.065852], [100.658081, 14.065849], [100.660758, 14.065922], [100.66328, 14.06599], [100.663279, 14.066117], [100.663287, 14.066406], [100.663307, 14.066542], [100.663382, 14.066481], [100.663422, 14.06641], [100.663439, 14.066126], [100.663445, 14.065775], [100.663445, 14.065473], [100.663425, 14.065408], [100.663397, 14.065376], [100.663333, 14.065336], [100.663292, 14.065779], [100.663285, 14.065871], [100.662946, 14.065853], [100.662683, 14.065838], [100.662395, 14.065826], [100.662222, 14.065817], [100.66197, 14.06582], [100.661046, 14.065786], [100.660325, 14.065766], [100.660008, 14.065761], [100.659191, 14.06574], [100.658925, 14.065727], [100.658336, 14.065708], [100.658048, 14.065713], [100.657112, 14.065693], [100.656653, 14.065686], [100.656255, 14.065673], [100.655821, 14.065657], [100.655382, 14.065649], [100.655141, 14.065648], [100.654952, 14.065643], [100.654799, 14.065633], [100.654064, 14.065606], [100.653564, 14.065602], [100.653066, 14.065575], [100.653038, 14.065575], [100.652888, 14.065577], [100.652728, 14.065573], [100.65225, 14.06557], [100.65176, 14.06556], [100.651696, 14.065558], [100.651326, 14.065542], [100.651171, 14.065518], [100.65085, 14.065505], [100.649705, 14.065489], [100.649278, 14.06548], [100.649195, 14.065477], [100.648726, 14.065468], [100.648325, 14.065457], [100.647872, 14.065452], [100.647539, 14.065442], [100.647398, 14.065438], [100.647083, 14.065431], [100.646441, 14.065423], [100.645933, 14.065409], [100.644506, 14.065392], [100.644007, 14.065435], [100.643604, 14.065429], [100.643466, 14.065426], [100.643035, 14.065416], [100.642207, 14.065402], [100.642127, 14.065398], [100.641704, 14.065411], [100.640716, 14.065379], [100.640398, 14.065368], [100.640001, 14.065356], [100.638863, 14.065333], [100.637767, 14.065311], [100.637636, 14.065304], [100.637259, 14.065282], [100.636751, 14.065273], [100.635921, 14.065267], [100.635458, 14.065259], [100.634785, 14.065251], [100.63453, 14.065244], [100.634424, 14.065241], [100.634097, 14.065238], [100.633976, 14.065237], [100.633891, 14.065234], [100.633619, 14.065225], [100.631762, 14.065196], [100.631595, 14.065198], [100.631092, 14.065191], [100.630259, 14.0652], [100.629777, 14.0652], [100.629494, 14.065193], [100.629341, 14.065191], [100.629193, 14.065185], [100.627908, 14.065173], [100.627145, 14.065154], [100.626763, 14.065135], [100.626216, 14.065131], [100.625696, 14.065113], [100.6256, 14.065111], [100.625405, 14.065111], [100.625356, 14.065111], [100.624814, 14.065108], [100.624589, 14.065108], [100.623839, 14.065112], [100.623711, 14.065112], [100.623, 14.065111], [100.622899, 14.065104], [100.622643, 14.065084], [100.622539, 14.065072], [100.622463, 14.065051], [100.622279, 14.065028], [100.6221, 14.06499], [100.621874, 14.064922], [100.621589, 14.064803], [100.62121, 14.064594], [100.620627, 14.064152], [100.620286, 14.063908], [100.619993, 14.063743], [100.619806, 14.063663], [100.619511, 14.063593], [100.619344, 14.063568], [100.619141, 14.063551], [100.618854, 14.063553], [100.617235, 14.063605], [100.616961, 14.063617], [100.616738, 14.06363], [100.616563, 14.063659], [100.616469, 14.063689], [100.61633, 14.063744], [100.616244, 14.063798], [100.61618, 14.063849], [100.616113, 14.06391], [100.616076, 14.063948], [100.616039, 14.063987], [100.616002, 14.06403], [100.615966, 14.064079], [100.615908, 14.064174], [100.615872, 14.064246], [100.615839, 14.064334], [100.615824, 14.064377], [100.61581, 14.06442], [100.615795, 14.064501], [100.615786, 14.064583], [100.615781, 14.064666], [100.61578, 14.064761], [100.615791, 14.06485], [100.615813, 14.064939], [100.615842, 14.065001], [100.615874, 14.065072], [100.615916, 14.065143], [100.615961, 14.065197], [100.61601, 14.065255], [100.616084, 14.065314], [100.616153, 14.065369], [100.616458, 14.065555], [100.616631, 14.065651], [100.616791, 14.065753], [100.616912, 14.065853], [100.616958, 14.065901], [100.616995, 14.065952], [100.617036, 14.066014], [100.617092, 14.066123], [100.617112, 14.066195], [100.617124, 14.066259], [100.617131, 14.066346], [100.617188, 14.066467], [100.617261, 14.068381], [100.617304, 14.069445], [100.61734, 14.070274], [100.617342, 14.070357], [100.617362, 14.070798], [100.617367, 14.070902], [100.61737, 14.070961], [100.617382, 14.071228], [100.617424, 14.072235], [100.617453, 14.072767], [100.617465, 14.072983], [100.617502, 14.073736], [100.61751, 14.074134], [100.61753, 14.074906], [100.617562, 14.075607], [100.617502, 14.075666], [100.61747, 14.075694], [100.617435, 14.075713], [100.617393, 14.07572], [100.61734, 14.075725], [100.617284, 14.075727], [100.617053, 14.075736], [100.616337, 14.075745], [100.616138, 14.075746], [100.615917, 14.075745], [100.615668, 14.075731], [100.615448, 14.075719], [100.615159, 14.075707], [100.614908, 14.075703], [100.614797, 14.075701], [100.614583, 14.075698], [100.613651, 14.075701], [100.611803, 14.075684], [100.6102, 14.075678], [100.610166, 14.074919], [100.610116, 14.073118], [100.610085, 14.072161], [100.60913, 14.072146], [100.608712, 14.072146], [100.608641, 14.072146], [100.608558, 14.072146], [100.608459, 14.072145], [100.608085, 14.072142], [100.607982, 14.072139], [100.607434, 14.072136], [100.60631, 14.072127], [100.605882, 14.072126], [100.605105, 14.072121], [100.604593, 14.072116], [100.60443, 14.072114], [100.604051, 14.072113], [100.603474, 14.072102], [100.603381, 14.0721], [100.603325, 14.072101], [100.603283, 14.0721], [100.60291, 14.0721], [100.602398, 14.072094], [100.602056, 14.072098], [100.601853, 14.072096], [100.601696, 14.072099], [100.60164, 14.072099], [100.601623, 14.072882], [100.601624, 14.072943], [100.601624, 14.072989], [100.601614, 14.073712], [100.601632, 14.074611], [100.601624, 14.074781], [100.60158, 14.074793], [100.601546, 14.074823], [100.60153, 14.074877], [100.601534, 14.074904], [100.601554, 14.074938], [100.601587, 14.074961], [100.601626, 14.074969], [100.601631, 14.075212], [100.601627, 14.075453], [100.601625, 14.075606], [100.601623, 14.075842], [100.601612, 14.076008], [100.601568, 14.076081], [100.601668, 14.076079], [100.60173, 14.076072], [100.60199, 14.076024], [100.602158, 14.075958], [100.602314, 14.075884], [100.602506, 14.075795], [100.602684, 14.07574], [100.602887, 14.075702], [100.603016, 14.075699], [100.603431, 14.07571], [100.603443, 14.076083], [100.603441, 14.076283], [100.603404, 14.076323], [100.603396, 14.076349], [100.603396, 14.076376], [100.603403, 14.076403], [100.603418, 14.076428], [100.603441, 14.076448], [100.603469, 14.07646], [100.603518, 14.077593], [100.603519, 14.077835], [100.603519, 14.077906], [100.603515, 14.078145], [100.603518, 14.078292], [100.60352, 14.078361], [100.603521, 14.078698], [100.603492, 14.078931], [100.603451, 14.079132], [100.603302, 14.079138], [100.603242, 14.079141], [100.602743, 14.079161], [100.602455, 14.079173], [100.601986, 14.079194]]}}]}