{
 "type": "FeatureCollection",
 "name": "mock_drive_route",
 "properties": {
  "description": "เส้นทางจำลอง เกาะถนนกาญจนาภิเษกสายหลัก (เลนขาขึ้น ไม่สวนเลน) โซนเหนือ เริ่มก่อนจุดเสี่ยงแรก ~600m",
  "road": "ถนนกาญจนาภิเษก",
  "length_km": 11.77,
  "start_offset_m": 600,
  "targets": [
   {
    "id": "zone_74",
    "level": "medium"
   },
   {
    "id": "zone_47",
    "level": "low"
   },
   {
    "id": "zone_31",
    "level": "high"
   },
   {
    "id": "zone_43",
    "level": "medium"
   },
   {
    "id": "zone_11",
    "level": "low"
   },
   {
    "id": "zone_84",
    "level": "high"
   }
  ]
 },
 "features": [
  {
   "type": "Feature",
   "properties": {
    "kind": "route"
   },
   "geometry": {
    "type": "LineString",
    "coordinates": [
     [
      100.71298,
      13.961046
     ],
     [
      100.712992,
      13.961369
     ],
     [
      100.713006,
      13.962301
     ],
     [
      100.713012,
      13.963185
     ],
     [
      100.713018,
      13.964069
     ],
     [
      100.712987,
      13.965079
     ],
     [
      100.712957,
      13.966088
     ],
     [
      100.712952,
      13.966441
     ],
     [
      100.712948,
      13.966786
     ],
     [
      100.712947,
      13.966929
     ],
     [
      100.712944,
      13.967019
     ],
     [
      100.712936,
      13.967954
     ],
     [
      100.712908,
      13.968889
     ],
     [
      100.712884,
      13.969368
     ],
     [
      100.712841,
      13.969866
     ],
     [
      100.712815,
      13.970289
     ],
     [
      100.712828,
      13.971601
     ],
     [
      100.71284,
      13.972912
     ],
     [
      100.712853,
      13.974224
     ],
     [
      100.712866,
      13.975536
     ],
     [
      100.712886,
      13.976616
     ],
     [
      100.712906,
      13.977697
     ],
     [
      100.712944,
      13.97885
     ],
     [
      100.713014,
      13.979992
     ],
     [
      100.713067,
      13.980703
     ],
     [
      100.713085,
      13.980896
     ],
     [
      100.713098,
      13.981049
     ],
     [
      100.713118,
      13.981346
     ],
     [
      100.713109,
      13.982289
     ],
     [
      100.713127,
      13.982996
     ],
     [
      100.713144,
      13.983703
     ],
     [
      100.713172,
      13.98472
     ],
     [
      100.713183,
      13.985264
     ],
     [
      100.71319,
      13.985763
     ],
     [
      100.713191,
      13.986307
     ],
     [
      100.713187,
      13.986731
     ],
     [
      100.713198,
      13.987218
     ],
     [
      100.713183,
      13.987748
     ],
     [
      100.713141,
      13.988254
     ],
     [
      100.713049,
      13.988738
     ],
     [
      100.712914,
      13.989309
     ],
     [
      100.712772,
      13.98985
     ],
     [
      100.712621,
      13.990349
     ],
     [
      100.712428,
      13.99085
     ],
     [
      100.712084,
      13.991618
     ],
     [
      100.711678,
      13.992483
     ],
     [
      100.711407,
      13.993107
     ],
     [
      100.711136,
      13.993731
     ],
     [
      100.710657,
      13.994813
     ],
     [
      100.710179,
      13.995895
     ],
     [
      100.7097,
      13.996978
     ],
     [
      100.709222,
      13.99806
     ],
     [
      100.708715,
      13.999213
     ],
     [
      100.708209,
      14.000367
     ],
     [
      100.707702,
      14.001521
     ],
     [
      100.707196,
      14.002674
     ],
     [
      100.706684,
      14.003818
     ],
     [
      100.706173,
      14.004961
     ],
     [
      100.705661,
      14.006105
     ],
     [
      100.70515,
      14.007249
     ],
     [
      100.704638,
      14.008393
     ],
     [
      100.704127,
      14.009536
     ],
     [
      100.703615,
      14.01068
     ],
     [
      100.703211,
      14.01163
     ],
     [
      100.702808,
      14.01258
     ],
     [
      100.702404,
      14.01353
     ],
     [
      100.702,
      14.01448
     ],
     [
      100.70151,
      14.015583
     ],
     [
      100.70102,
      14.016686
     ],
     [
      100.70053,
      14.017789
     ],
     [
      100.70004,
      14.018892
     ],
     [
      100.69955,
      14.019995
     ],
     [
      100.699145,
      14.020931
     ],
     [
      100.698956,
      14.021368
     ],
     [
      100.698769,
      14.021875
     ],
     [
      100.698623,
      14.022351
     ],
     [
      100.698477,
      14.022875
     ],
     [
      100.698338,
      14.023461
     ],
     [
      100.698246,
      14.023957
     ],
     [
      100.698176,
      14.024418
     ],
     [
      100.698156,
      14.024895
     ],
     [
      100.698123,
      14.025355
     ],
     [
      100.698103,
      14.025812
     ],
     [
      100.698102,
      14.027121
     ],
     [
      100.698102,
      14.02843
     ],
     [
      100.698101,
      14.029739
     ],
     [
      100.6981,
      14.031047
     ],
     [
      100.6981,
      14.032356
     ],
     [
      100.698099,
      14.033665
     ],
     [
      100.698099,
      14.034974
     ],
     [
      100.698098,
      14.036283
     ],
     [
      100.698097,
      14.037592
     ],
     [
      100.698097,
      14.0389
     ],
     [
      100.698096,
      14.040209
     ],
     [
      100.698095,
      14.041518
     ],
     [
      100.698095,
      14.042827
     ],
     [
      100.698094,
      14.044136
     ],
     [
      100.698094,
      14.045445
     ],
     [
      100.698093,
      14.046753
     ],
     [
      100.698092,
      14.048062
     ],
     [
      100.698092,
      14.049371
     ],
     [
      100.698091,
      14.05068
     ],
     [
      100.698045,
      14.05157
     ],
     [
      100.697969,
      14.052459
     ],
     [
      100.697838,
      14.053769
     ],
     [
      100.697707,
      14.055079
     ],
     [
      100.697576,
      14.056389
     ],
     [
      100.697445,
      14.0577
     ],
     [
      100.697314,
      14.05901
     ],
     [
      100.697183,
      14.06032
     ],
     [
      100.697052,
      14.06163
     ],
     [
      100.696974,
      14.062414
     ],
     [
      100.696899,
      14.063158
     ],
     [
      100.696824,
      14.063902
     ]
    ]
   }
  }
 ]
}