{
 "type": "FeatureCollection",
 "name": "nstda_test_loop",
 "properties": {
  "description": "เส้นทางทดสอบวนรอบอุทยานวิทยาศาสตร์ประเทศไทย 1 รอบ ตามทิศทาง one-way จริง เริ่มกลางถนนฝั่งตะวันตก ผ่านจุดเสี่ยงครบทั้ง 8 จุด แล้วกลับจุดเริ่ม",
  "road": "ถนนวงรอบอุทยานวิทยาศาสตร์ประเทศไทย",
  "length_km": 1.4,
  "calibration": "nstda-test-r1",
  "targets": [
   {
    "id": "nstda_low",
    "level": "low",
    "landmark": "หน้าอาคาร สวทช. / ศูนย์หนังสือ"
   },
   {
    "id": "nstda_medium",
    "level": "medium",
    "landmark": "ทางแยกเข้าศูนย์ประชุมอุทยานวิทยาศาสตร์ประเทศไทย"
   },
   {
    "id": "nstda_high",
    "level": "high",
    "landmark": "หน้าโรงงานต้นแบบ MTEC / BIOTEC Pilot Plant"
   },
   {
    "id": "nstda_w1",
    "level": "low",
    "landmark": "หน้าโรงงานต้นแบบ NECTEC ปลายถนนฝั่งตะวันตก"
   },
   {
    "id": "nstda_w2",
    "level": "medium",
    "landmark": "ทางเข้าออก Betagro Science Center / อาคาร MTEC"
   },
   {
    "id": "nstda_w3",
    "level": "low",
    "landmark": "หน้าอาคาร MTEC ฝั่งถนนตะวันตก"
   },
   {
    "id": "nstda_w4",
    "level": "low",
    "landmark": "หน้าอาคาร BIOTEC / ศูนย์ฝึกอบรม"
   },
   {
    "id": "nstda_w5",
    "level": "medium",
    "landmark": "ทางโค้งมุมตะวันตกเฉียงใต้ ก่อนเลี้ยวเข้าถนนด้านใต้"
   }
  ]
 },
 "features": [
  {
   "type": "Feature",
   "properties": {
    "kind": "route"
   },
   "geometry": {
    "type": "LineString",
    "coordinates": [
     [
      100.603518,
      14.077593
     ],
     [
      100.603519,
      14.077835
     ],
     [
      100.603519,
      14.077906
     ],
     [
      100.603515,
      14.078145
     ],
     [
      100.603518,
      14.078292
     ],
     [
      100.60352,
      14.078361
     ],
     [
      100.603521,
      14.078698
     ],
     [
      100.603492,
      14.078931
     ],
     [
      100.603451,
      14.079132
     ],
     [
      100.603397,
      14.07948
     ],
     [
      100.603275,
      14.080267
     ],
     [
      100.603202,
      14.080351
     ],
     [
      100.602734,
      14.080411
     ],
     [
      100.601492,
      14.080482
     ],
     [
      100.601466,
      14.080484
     ],
     [
      100.600886,
      14.080355
     ],
     [
      100.600927,
      14.080113
     ],
     [
      100.600917,
      14.079849
     ],
     [
      100.600884,
      14.07946
     ],
     [
      100.600852,
      14.078821
     ],
     [
      100.600808,
      14.078172
     ],
     [
      100.600785,
      14.077699
     ],
     [
      100.600779,
      14.077602
     ],
     [
      100.600725,
      14.076747
     ],
     [
      100.600736,
      14.076687
     ],
     [
      100.600766,
      14.076627
     ],
     [
      100.600822,
      14.076564
     ],
     [
      100.600906,
      14.076538
     ],
     [
      100.601339,
      14.076511
     ],
     [
      100.601574,
      14.0765
     ],
     [
      100.601675,
      14.076498
     ],
     [
      100.601901,
      14.076486
     ],
     [
      100.602376,
      14.076465
     ],
     [
      100.603403,
      14.076403
     ],
     [
      100.603469,
      14.07646
     ],
     [
      100.603518,
      14.077593
     ]
    ]
   }
  }
 ]
}